STARLINK-30967          
1 58416U 23180Q   26068.93640021  .00016796  00000+0  61816-3 0  9998
2 58416  43.0036  51.1487 0002723 303.7372  56.3220 15.27595324127660
STARLINK-31630          
1 59271U 24050T   26068.56880718 -.00002063  00000+0 -57526-4 0  9991
2 59271  53.1600 168.5079 0001409  92.3163 267.7999 15.30200807110710
